{"spkid": "50843417", "covariance": {"labels": ["e", "q", "tp", "node", "peri", "i"], "elements": [{"label": "e", "sigma": 5.96065307371655e-08, "name": "e", "units": null, "title": "eccentricity", "value": ".6030767699233608"}, {"name": "q", "sigma": 8.74346078306808e-08, "title": "perihelion distance", "value": ".5746435764255836", "units": "au", "label": "q"}, {"sigma": 4.65814826913886e-05, "name": "tp", "value": "2458190.419782170093", "title": "time of perihelion passage", "units": "TDB", "label": "tp"}, {"label": "node", "value": "200.535219126149", "title": "longitude of the ascending node", "units": "deg", "name": "om", "sigma": 0.000101554848723317}, {"label": "peri", "sigma": 9.99256485110733e-05, "name": "w", "units": "deg", "title": "argument of perihelion", "value": "256.6706355799897"}, {"name": "i", "sigma": 5.65203795720547e-06, "units": "deg", "title": "inclination", "value": "4.108377068539524", "label": "i"}], "data": [["3.552938506520658E-15", "-5.203343401157307E-15", "8.546521218076838E-13", "5.168131805905576E-13", "7.885037887631105E-15", "1.709830397508225E-14"], ["-5.203343401157307E-15", "7.644810646504948E-15", "-1.442770361437471E-12", "-8.248470374284654E-13", "-5.500842702121013E-15", "-2.686232250360388E-14"], ["8.546521218076838E-13", "-1.442770361437471E-12", "2.169834529728137E-9", "7.778129118794595E-10", "-6.959805818586845E-12", "2.671515259350528E-11"], ["5.168131805905576E-13", "-8.248470374284654E-13", "7.778129118794595E-10", "1.031338729921586E-8", "-9.996677075275123E-9", "-3.105316565391727E-10"], ["7.885037887631105E-15", "-5.500842702121013E-15", "-6.959805818586845E-12", "-9.996677075275123E-9", "9.985135230358564E-9", "3.19610049148164E-10"], ["1.709830397508225E-14", "-2.686232250360388E-14", "2.671515259350528E-11", "-3.105316565391727E-10", "3.19610049148164E-10", "3.194553306969144E-11"]], "epoch": "2458194.5"}, "elements": [{"value": ".6031522028199165", "title": "eccentricity", "units": null, "sigma": "5.9651E-8", "name": "e", "label": "e"}, {"label": "a", "units": "au", "title": "semi-major axis", "value": "1.448013016290507", "sigma": "1.2796E-8", "name": "a"}, {"label": "q", "units": "au", "title": "perihelion distance", "value": ".5746407758029759", "sigma": "8.7492E-8", "name": "q"}, {"label": "i", "units": "deg", "title": "inclination; angle with respect to x-y ecliptic plane", "value": "4.106338902352491", "sigma": "5.6569E-6", "name": "i"}, {"label": "node", "name": "om", "sigma": ".00010164", "units": "deg", "value": "200.372320291148", "title": "longitude of the ascending node"}, {"sigma": ".00010001", "name": "w", "value": "256.8828587580015", "title": "argument of perihelion", "units": "deg", "label": "peri"}, {"label": "M", "units": "deg", "value": "262.7742288066185", "title": "mean anomaly", "sigma": "1.2535E-5", "name": "ma"}, {"units": "TDB", "value": "2461372.384225439116", "title": "time of perihelion passage", "sigma": "2.2154E-5", "name": "tp", "label": "tp"}, {"label": "period", "sigma": "8.436E-6", "name": "per", "units": "d", "value": "636.4394995130059", "title": "sidereal orbital period"}, {"label": "n", "units": "deg/d", "value": ".5656468529616195", "title": "mean motion", "name": "n", "sigma": "7.4976E-9"}, {"label": "Q", "sigma": "2.0513E-8", "name": "ad", "value": "2.321385256778038", "title": "aphelion distance", "units": "au"}], "epoch": "2461200.5"}